LEMUR-2-ROUNDTRIPPER    
1 62711U 25009DG  26197.16729118  .00004268  00000+0  31136-3 0  9999
2 62711  97.7251 279.8114 0004488  62.0486 298.1193 15.04240391 81980
LEMUR-2-MYNAMEISJEFF    
1 62712U 25009DH  26196.76665947  .00004503  00000+0  32837-3 0  9995
2 62712  97.7301 279.8094 0004115  96.2499 263.9195 15.04228449 81920
LEMUR-2-LEIA-PHILIP     
1 63246U 25052AN  26197.13900495  .00000044  00000+0  87312-5 0  9994
2 63246  97.6803  88.5990 0005102 117.5275 242.6466 14.97391811 73005
LEMUR-2-LIA-MARTIN      
1 63248U 25052AQ  26197.13315666  .00001818  00000+0  15874-3 0  9998
2 63248  97.6865  89.1137 0005248  87.9909 272.1915 14.98034040 73017
LEMUR-2-DELOITTE-1      
1 63259U 25052BB  26197.18057447  .00002283  00000+0  19938-3 0  9997
2 63259  97.6880  89.4902 0002595  64.9145 295.2346 14.97786427 73036
LEMUR-2-EMERSONROSE     
1 63261U 25052BD  26197.12702455  .00002540  00000+0  21288-3 0  9997
2 63261  97.6884  90.0528 0002677  59.3748 300.7739 14.99295862 73075
LEMUR-2-MARACHE-FRAN    
1 63262U 25052BE  26197.14909869  .00001561  00000+0  12922-3 0  9995
2 63262  97.6832  90.4432 0005279 248.2004 111.8658 15.00318444 73102
LEMUR-2-THEFALCONER     
1 63264U 25052BG  26196.27574090  .00001069  00000+0  96508-4 0  9990
2 63264  97.6830  88.1900 0000294 296.3949  63.7243 14.97563100 72896
LEMUR-2-UNTITLED-SC     
1 63351U 25061A   26197.17753478  .00001690  00000+0  97364-4 0  9997
2 63351  97.5657 172.3340 0019291 159.8388 200.3609 15.13649019 71976
LEMUR-2-ESPERANZA       
1 63352U 25061B   26196.88838929  .00001751  00000+0  10045-3 0  9998
2 63352  97.5664 172.1471 0018885 159.9774 200.2202 15.13754973 71936
LEMUR-2-KREMPEL-BRO2    
1 63353U 25061C   26196.97324944  .00001631  00000+0  92652-4 0  9998
2 63353  97.5706 172.8015 0020069 152.6735 207.5556 15.14181507 71962
LEMUR-2-THERMORAPTOR    
1 63354U 25061D   26196.88768536  .00002072  00000+0  11648-3 0  9993
2 63354  97.5712 172.7977 0019789 151.8094 208.4213 15.14264291 71953
LEMUR-2-NEUROSPICY      
1 63355U 25061E   26197.18752044  .00001548  00000+0  87740-4 0  9999
2 63355  97.5641 172.6997 0017604 153.6477 206.5653 15.14384106 72007
LEMUR-2-TILLINFINITY    
1 63356U 25061F   26196.88136137  .00002199  00000+0  12104-3 0  9999
2 63356  97.5625 172.7060 0019137 143.6124 216.6413 15.14967400 71989
LEMUR-2-KREMPEL-BRO1    
1 63357U 25061G   26196.92455596  .00001722  00000+0  96037-4 0  9997
2 63357  97.5626 172.6569 0019755 144.8713 215.3826 15.14774664 71989
LEMUR-2-LANGER2SPACE    
1 63358U 25061H   26196.89075938  .00002014  00000+0  11277-3 0  9999
2 63358  97.5633 172.4259 0017462 152.9152 207.2994 15.14467754 71965
LEMUR-2-BALTO           
1 63395U 25052BH  26196.93335370  .00002472  00000+0  20164-3 0  9997
2 63395  97.6928  90.2192 0005087 324.4580  35.6304 15.00367882 73076
LEMUR-2-KRISH           
1 64561U 25135AK  26196.82904968  .00001773  00000+0  16140-3 0  9990
2 64561  97.7774 311.5152 0001279  96.4865 263.6502 14.96451015 58205
LEMUR-2-HUBBLE-4        
1 64565U 25135AP  26196.87807391  .00000792  00000+0  80239-4 0  9992
2 64565  97.7720 310.4520 0002725 160.3081 199.8244 14.93687144 58153
LEMUR-2-SEJONG-2        
1 64586U 25135BL  26197.25096292  .00002050  00000+0  18364-3 0  9996
2 64586  97.7709 312.0797 0004024 213.7817 146.3149 14.96916084 58298
LEMUR-2-HUBBLE-5        
1 64840U 25135BT  26196.88666764  .00000584  00000+0  59795-4 0  9998
2 64840  97.7741 311.1302 0004355 232.4471 127.6353 14.94214757 58194
LEMUR-2-KARENDARRELL    
1 64841U 25135BU  26196.79663076  .00004305  00000+0  34587-3 0  9998
2 64841  97.7719 312.9676 0012499 102.9205 257.3415 15.00505264 58304
LEMUR-2-LUCILLE-ROSE    
1 65403U 25135BV  26197.10351969  .00003346  00000+0  26989-3 0  9995
2 65403  97.7711 313.3095 0015009 186.2550 173.8488 15.00494753 52978
LEMUR-2-AFFIE-WAUWIE    
1 66295U 25248C   26196.36935946  .00012792  00000+0  46577-3 0  9990
2 66295  45.3887 322.1687 0008766 251.4181 108.5756 15.28256430 38901
OTTER SDM               
1 66678U 25276N   26197.15060764  .00003546  00000+0  16750-3 0  9998
2 66678  97.4204 270.1502 0004338 249.3545 110.7225 15.20063289 34818
LEMUR-2-STAS-GORBUK     
1 66686U 25276W   26197.10644338  .00002830  00000+0  13589-3 0  9999
2 66686  97.4239 270.1584 0003663 243.4257 116.6603 15.19663926 34806
LEMUR-2-TEODOR          
1 66768U 25276DG  26197.12421566  .00002683  00000+0  12291-3 0  9993
2 66768  97.4143 270.4490 0002203  87.8985 272.2503 15.21342632 34840
LEMUR-2-LAILA           
1 66776U 25276DQ  26197.15964326  .00003001  00000+0  13619-3 0  9991
2 66776  97.4166 270.6229 0002921  92.6922 267.4649 15.21569099 34854
LEMUR-2-CELIJO-SB-PK    
1 66781U 25276DW  26197.11861998  .00002956  00000+0  24043-3 0  9995
2 66781  97.5192 266.9411 0006934  62.1026 298.0900 15.00289553 26960
LEMUR-2-FINNIAN         
1 66782U 25276DX  26197.15537352  .00001457  00000+0  11979-3 0  9993
2 66782  97.5343 267.2469 0007098 355.3535   4.7622 15.00622308 24342
