OBJECT_NAME,OBJECT_ID,EPOCH,MEAN_MOTION,ECCENTRICITY,INCLINATION,RA_OF_ASC_NODE,ARG_OF_PERICENTER,MEAN_ANOMALY,EPHEMERIS_TYPE,CLASSIFICATION_TYPE,NORAD_CAT_ID,ELEMENT_SET_NO,REV_AT_EPOCH,BSTAR,MEAN_MOTION_DOT,MEAN_MOTION_DDOT
LEMUR-2-ROUNDTRIPPER,2025-009DG,2026-07-16T04:00:53.957952,15.04240391,.0004488,97.7251,279.8114,62.0486,298.1193,0,U,62711,999,8198,.31136E-3,.4268E-4,0
LEMUR-2-MYNAMEISJEFF,2025-009DH,2026-07-15T18:23:59.378208,15.04228449,.0004115,97.7301,279.8094,96.2499,263.9195,0,U,62712,999,8192,.32837E-3,.4503E-4,0
LEMUR-2-LEIA-PHILIP,2025-052AN,2026-07-16T03:20:10.027680,14.97391811,.0005102,97.6803,88.5990,117.5275,242.6466,0,U,63246,999,7300,.87312E-5,.44E-6,0
LEMUR-2-LIA-MARTIN,2025-052AQ,2026-07-16T03:11:44.735424,14.98034040,.0005248,97.6865,89.1137,87.9909,272.1915,0,U,63248,999,7301,.15874E-3,.1818E-4,0
LEMUR-2-DELOITTE-1,2025-052BB,2026-07-16T04:20:01.634208,14.97786427,.0002595,97.6880,89.4902,64.9145,295.2346,0,U,63259,999,7303,.19938E-3,.2283E-4,0
LEMUR-2-EMERSONROSE,2025-052BD,2026-07-16T03:02:54.921120,14.99295862,.0002677,97.6884,90.0528,59.3748,300.7739,0,U,63261,999,7307,.21288E-3,.254E-4,0
LEMUR-2-MARACHE-FRAN,2025-052BE,2026-07-16T03:34:42.126816,15.00318444,.0005279,97.6832,90.4432,248.2004,111.8658,0,U,63262,999,7310,.12922E-3,.1561E-4,0
LEMUR-2-THEFALCONER,2025-052BG,2026-07-15T06:37:04.013760,14.97563100,.00002945,97.6830,88.1900,296.3949,63.7243,0,U,63264,999,7289,.96507585E-4,.1069E-4,0
LEMUR-2-UNTITLED-SC,2025-061A,2026-07-16T04:15:39.004992,15.13649019,.0019291,97.5657,172.3340,159.8388,200.3609,0,U,63351,999,7197,.97364E-4,.169E-4,0
LEMUR-2-ESPERANZA,2025-061B,2026-07-15T21:19:16.834656,15.13754973,.0018885,97.5664,172.1471,159.9774,200.2202,0,U,63352,999,7193,.10045E-3,.1751E-4,0
LEMUR-2-KREMPEL-BRO2,2025-061C,2026-07-15T23:21:28.751616,15.14181507,.0020069,97.5706,172.8015,152.6735,207.5556,0,U,63353,999,7196,.92652E-4,.1631E-4,0
LEMUR-2-THERMORAPTOR,2025-061D,2026-07-15T21:18:16.015104,15.14264291,.0019789,97.5712,172.7977,151.8094,208.4213,0,U,63354,999,7195,.11648E-3,.2072E-4,0
LEMUR-2-NEUROSPICY,2025-061E,2026-07-16T04:30:01.766016,15.14384106,.0017604,97.5641,172.6997,153.6477,206.5653,0,U,63355,999,7200,.8774E-4,.1548E-4,0
LEMUR-2-TILLINFINITY,2025-061F,2026-07-15T21:09:09.622368,15.14967400,.0019137,97.5625,172.7060,143.6124,216.6413,0,U,63356,999,7198,.12104E-3,.2199E-4,0
LEMUR-2-KREMPEL-BRO1,2025-061G,2026-07-15T22:11:21.634944,15.14774664,.0019755,97.5626,172.6569,144.8713,215.3826,0,U,63357,999,7198,.96037E-4,.1722E-4,0
LEMUR-2-LANGER2SPACE,2025-061H,2026-07-15T21:22:41.610432,15.14467754,.0017462,97.5633,172.4259,152.9152,207.2994,0,U,63358,999,7196,.11276979E-3,.2014E-4,0
LEMUR-2-BALTO,2025-052BH,2026-07-15T22:24:01.759680,15.00367882,.0005087,97.6928,90.2192,324.4580,35.6304,0,U,63395,999,7307,.20164E-3,.2472E-4,0
LEMUR-2-KRISH,2025-135AK,2026-07-15T19:53:49.892352,14.96451015,.00012799,97.7774,311.5152,96.4865,263.6502,0,U,64561,999,5820,.16139543E-3,.1773E-4,0
LEMUR-2-HUBBLE-4,2025-135AP,2026-07-15T21:04:25.585824,14.93687144,.0002725,97.7720,310.4520,160.3081,199.8244,0,U,64565,999,5815,.80239E-4,.792E-5,0
LEMUR-2-SEJONG-2,2025-135BL,2026-07-16T06:01:23.196288,14.96916084,.0004024,97.7709,312.0797,213.7817,146.3149,0,U,64586,999,5829,.18364E-3,.205E-4,0
LEMUR-2-HUBBLE-5,2025-135BT,2026-07-15T21:16:48.084096,14.94214757,.0004355,97.7741,311.1302,232.4471,127.6353,0,U,64840,999,5819,.59795E-4,.584E-5,0
LEMUR-2-KARENDARRELL,2025-135BU,2026-07-15T19:07:08.897664,15.00505264,.0012499,97.7719,312.9676,102.9205,257.3415,0,U,64841,999,5830,.34587499E-3,.4305E-4,0
LEMUR-2-LUCILLE-ROSE,2025-135BV,2026-07-16T02:29:04.101216,15.00494753,.0015009,97.7711,313.3095,186.2550,173.8488,0,U,65403,999,5297,.26989E-3,.3346E-4,0
LEMUR-2-AFFIE-WAUWIE,2025-248C,2026-07-15T08:51:52.657344,15.28256430,.00087669,45.3887,322.1687,251.4181,108.5756,0,U,66295,999,3890,.46577019E-3,.12792E-3,0
OTTER SDM,2025-276N,2026-07-16T03:36:52.500096,15.20063289,.0004338,97.4204,270.1502,249.3545,110.7225,0,U,66678,999,3481,.1675E-3,.3546E-4,0
LEMUR-2-STAS-GORBUK,2025-276W,2026-07-16T02:33:16.708032,15.19663926,.0003663,97.4239,270.1584,243.4257,116.6603,0,U,66686,999,3480,.13589E-3,.283E-4,0
LEMUR-2-TEODOR,2025-276DG,2026-07-16T02:58:52.233024,15.21342632,.0002203,97.4143,270.4490,87.8985,272.2503,0,U,66768,999,3484,.12291E-3,.2683E-4,0
LEMUR-2-LAILA,2025-276DQ,2026-07-16T03:49:53.177664,15.21569099,.0002921,97.4166,270.6229,92.6922,267.4649,0,U,66776,999,3485,.13619E-3,.3001E-4,0
LEMUR-2-CELIJO-SB-PK,2025-276DW,2026-07-16T02:50:48.766272,15.00289553,.0006934,97.5192,266.9411,62.1026,298.0900,0,U,66781,999,2696,.24043E-3,.2956E-4,0
LEMUR-2-FINNIAN,2025-276DX,2026-07-16T03:43:44.272128,15.00622308,.0007098,97.5343,267.2469,355.3535,4.7622,0,U,66782,999,2434,.11979E-3,.1457E-4,0
